H1 CPF 01  gfz 2021 12 16 13  8502 terrasarx 
H2 0702601  6201 31698    2021 12 16 12 59 42 2021 12 21 00 00 42   120 1 1  0 0 0
H9
10 0 59567  85662.000000  0     956316.151  -1307969.036  -6702098.571
10 0 59567  85782.000000  0     958993.275  -2195320.937  -6465550.463
10 0 59567  85902.000000  0     929860.943  -3044403.226  -6116174.111
10 0 59567  86022.000000  0     870216.387  -3839921.347  -5659992.834
10 0 59567  86142.000000  0     782143.514  -4567508.410  -5104887.724
10 0 59567  86262.000000  0     668461.259  -5213986.164  -4460472.594
10 0 59567  86382.000000  0     532654.254  -5767610.177  -3737939.006
10 0 59568    102.000000  0     378787.337  -6218292.885  -2949870.618
10 0 59568    222.000000  0     211405.731  -6557798.831  -2110030.577
10 0 59568    342.000000  0      35422.954  -6779908.718  -1233123.907
10 0 59568    462.000000  0    -144001.464  -6880545.502   -334537.926
10 0 59568    582.000000  0    -321591.287  -6857858.568    569932.622
10 0 59568    702.000000  0    -492086.711  -6712264.574   1464369.829
10 0 59568    822.000000  0    -650378.002  -6446443.509   2333021.692
10 0 59568    942.000000  0    -791636.071  -6065288.263   3160589.280
10 0 59568   1062.000000  0    -911435.364  -5575807.972   3932504.689
10 0 59568   1182.000000  0   -1005867.736  -4986990.072   4635191.286
10 0 59568   1302.000000  0   -1071644.209  -4309626.004   5256303.920
10 0 59568   1422.000000  0   -1106181.227  -3556104.412   5784945.571
10 0 59568   1542.000000  0   -1107670.780  -2740174.189   6211856.078
10 0 59568   1662.000000  0   -1075131.470  -1876685.353   6529567.119
10 0 59568   1782.000000  0   -1008440.718   -981315.680   6732526.026
10 0 59568   1902.000000  0    -908348.621    -70284.014   6817188.205
10 0 59568   2022.000000  0    -776472.391    839944.013   6782075.069
10 0 59568   2142.000000  0    -615270.068   1732953.095   6627798.679
10 0 59568   2262.000000  0    -427994.620   2592673.872   6357051.683
10 0 59568   2382.000000  0    -218629.534   3403671.976   5974563.242
10 0 59568   2502.000000  0       8192.670   4151426.993   5487021.483
10 0 59568   2622.000000  0     247288.217   4822596.167   4902962.253
10 0 59568   2742.000000  0     493035.086   5405259.710   4232626.299
10 0 59568   2862.000000  0     739497.766   5889140.088   3487782.100
10 0 59568   2982.000000  0     980561.583   6265792.059   2681525.973
10 0 59568   3102.000000  0    1210076.694   6528765.633   1828049.359
10 0 59568   3222.000000  0    1422003.329   6673722.188    942382.937
10 0 59568   3342.000000  0    1610557.383   6698511.437     40125.035
10 0 59568   3462.000000  0    1770352.170   6603203.320   -862841.208
10 0 59568   3582.000000  0    1896532.046   6390075.738  -1750635.505
10 0 59568   3702.000000  0    1984895.371   6063558.973  -2607667.013
10 0 59568   3822.000000  0    2032003.573   5630137.718  -3418914.341
10 0 59568   3942.000000  0    2035273.608   5098212.888  -4170192.798
10 0 59568   4062.000000  0    1993051.465   4477926.775  -4848402.146
10 0 59568   4182.000000  0    1904665.048   3780958.262  -5441749.962
10 0 59568   4302.000000  0    1770456.610   3020294.111  -5939948.540
10 0 59568   4422.000000  0    1591793.321   2209980.159  -6334383.426
10 0 59568   4542.000000  0    1371056.625   1364858.857  -6618250.199
10 0 59568   4662.000000  0    1111611.859    500298.822  -6786661.264
10 0 59568   4782.000000  0     817756.924   -368081.204  -6836721.640
10 0 59568   4902.000000  0     494651.375  -1224689.283  -6767572.353
10 0 59568   5022.000000  0     148227.725  -2054232.717  -6580401.942
10 0 59568   5142.000000  0    -214913.827  -2841983.056  -6278429.224
10 0 59568   5262.000000  0    -587627.679  -3574034.095  -5866855.288
10 0 59568   5382.000000  0    -962358.661  -4237545.447  -5352782.159
10 0 59568   5502.000000  0   -1331289.964  -4820969.408  -4745102.063
10 0 59568   5622.000000  0   -1686501.729  -5314258.014  -4054355.124
10 0 59568   5742.000000  0   -2020136.991  -5709044.818  -3292556.323
10 0 59568   5862.000000  0   -2324571.215  -5998797.165  -2472994.088
10 0 59568   5982.000000  0   -2592581.957  -6178935.858  -1610003.224
10 0 59568   6102.000000  0   -2817514.704  -6246918.935   -718714.655
10 0 59568   6222.000000  0   -2993440.581  -6202285.430    185214.019
10 0 59568   6342.000000  0   -3115301.094  -6046656.702   1085880.544
10 0 59568   6462.000000  0   -3179036.360  -5783695.927   1967426.343
10 0 59568   6582.000000  0   -3181693.295  -5419025.780   2814325.057
10 0 59568   6702.000000  0   -3121510.757  -4960106.818   3611663.903
10 0 59568   6822.000000  0   -2997979.593  -4416080.444   4345412.241
10 0 59568   6942.000000  0   -2811876.781  -3797580.081   5002671.823
10 0 59568   7062.000000  0   -2565273.148  -3116515.372   5571903.959
10 0 59568   7182.000000  0   -2261513.262  -2385835.292   6043129.302
10 0 59568   7302.000000  0   -1905169.642  -1619277.003   6408098.074
10 0 59568   7422.000000  0   -1501971.661   -831103.714   6660430.235
10 0 59568   7542.000000  0   -1058710.716    -35835.462   6795719.949
10 0 59568   7662.000000  0    -583125.700    752017.625   6811605.996
10 0 59568   7782.000000  0     -83768.144   1518219.141   6707811.461
10 0 59568   7902.000000  0     430151.441   2249063.506   6486148.528
10 0 59568   8022.000000  0     948933.123   2931621.023   6150488.319
10 0 59568   8142.000000  0    1462569.544   3553967.095   5706697.645
10 0 59568   8262.000000  0    1960937.922   4105393.830   5162542.465
10 0 59568   8382.000000  0    2433999.759   4576599.712   4527558.357
10 0 59568   8502.000000  0    2872004.224   4959852.699   3812887.711
10 0 59568   8622.000000  0    3265689.300   5249122.984   3031088.479
10 0 59568   8742.000000  0    3606480.091   5440187.209   2195915.770
10 0 59568   8862.000000  0    3886676.959   5530694.349   1322074.306
10 0 59568   8982.000000  0    4099626.237   5520193.633    424954.921
10 0 59568   9102.000000  0    4239872.770   5410124.990   -479645.416
10 0 59568   9222.000000  0    4303288.741   5203768.813  -1375810.111
10 0 59568   9342.000000  0    4287176.457   4906160.277  -2247790.827
10 0 59568   9462.000000  0    4190341.541   4523968.936  -3080291.252
10 0 59568   9582.000000  0    4013134.713   4065347.018  -3858740.478
10 0 59568   9702.000000  0    3757461.868   3539750.140  -4569548.461
10 0 59568   9822.000000  0    3426764.372   2957737.046  -5200340.210
10 0 59568   9942.000000  0    3025968.477   2330752.337  -5740165.317
10 0 59568  10062.000000  0    2561406.435   1670897.784  -6179678.716
10 0 59568  10182.000000  0    2040711.522    990697.069  -6511291.266
10 0 59568  10302.000000  0    1472689.899    302859.592  -6729288.205
10 0 59568  10422.000000  0     867172.386   -379952.718  -6829918.555
10 0 59568  10542.000000  0     234845.037  -1045354.295  -6811453.140
10 0 59568  10662.000000  0    -412935.590  -1681454.752  -6674209.071
10 0 59568  10782.000000  0   -1064340.648  -2277065.109  -6420545.389
10 0 59568  10902.000000  0   -1707280.142  -2821891.340  -6054827.811
10 0 59568  11022.000000  0   -2329622.038  -3306710.529  -5583360.837
10 0 59568  11142.000000  0   -2919417.158  -3723527.696  -5014290.603
10 0 59568  11262.000000  0   -3465128.301  -4065712.157  -4357476.269
10 0 59568  11382.000000  0   -3955857.335  -4328108.520  -3624329.209
10 0 59568  11502.000000  0   -4381565.707  -4507120.483  -2827623.693
10 0 59568  11622.000000  0   -4733284.343  -4600765.346  -1981279.859
10 0 59568  11742.000000  0   -5003307.181  -4608696.852  -1100122.428
10 0 59568  11862.000000  0   -5185363.275  -4532195.576   -199619.321
10 0 59568  11982.000000  0   -5274763.113  -4374126.858    704394.857
10 0 59568  12102.000000  0   -5268514.354  -4138866.091   1596005.826
10 0 59568  12222.000000  0   -5165402.855  -3832192.238   2459509.556
10 0 59568  12342.000000  0   -4966037.445  -3461152.988   3279697.493
10 0 59568  12462.000000  0   -4672857.741  -3033905.757   4042131.338
10 0 59568  12582.000000  0   -4290104.587  -2559537.960   4733402.569
10 0 59568  12702.000000  0   -3823753.618  -2047871.311   5341369.004
10 0 59568  12822.000000  0   -3281416.500  -1509256.905   5855365.530
10 0 59568  12942.000000  0   -2672211.243   -954364.473   6266388.527
10 0 59568  13062.000000  0   -2006602.423   -393968.685   6567249.373
10 0 59568  13182.000000  0   -1296215.668    161261.374   6752692.984
10 0 59568  13302.000000  0    -553632.325    700963.547   6819482.875
10 0 59568  13422.000000  0     207833.379   1215274.889   6766454.293
10 0 59568  13542.000000  0     974372.389   1695011.558   6594533.514
10 0 59568  13662.000000  0    1731930.688   2131833.098   6306722.341
10 0 59568  13782.000000  0    2466465.985   2518387.378   5908048.637
10 0 59568  13902.000000  0    3164208.365   2848435.699   5405484.822
10 0 59568  14022.000000  0    3811921.659   3116956.140   4807832.148
10 0 59568  14142.000000  0    4397157.673   3320222.396   4125571.218
10 0 59568  14262.000000  0    4908500.791   3455856.591   3370684.657
10 0 59568  14382.000000  0    5335800.332   3522856.129   2556447.672
10 0 59568  14502.000000  0    5670377.860   3521589.937   1697192.388
10 0 59568  14622.000000  0    5905208.999   3453767.842    808051.752
10 0 59568  14742.000000  0    6035074.130   3322381.702    -95314.578
10 0 59568  14862.000000  0    6056672.701   3131619.134   -997004.922
10 0 59568  14982.000000  0    5968699.309   2886752.585  -1881164.129
10 0 59568  15102.000000  0    5771878.679   2594007.991  -2732269.462
10 0 59568  15222.000000  0    5468960.666   2260415.917  -3535408.795
10 0 59568  15342.000000  0    5064675.473   1893647.992  -4276544.511
10 0 59568  15462.000000  0    4565649.406   1501843.464  -4942758.862
10 0 59568  15582.000000  0    3980284.270   1093430.930  -5522472.897
10 0 59568  15702.000000  0    3318606.683    676950.137  -6005638.985
99
